NORAD_CAT_ID,OBJECT_NAME,OBJECT_TYPE,EPOCH,MEAN_MOTION,ECCENTRICITY,INCLINATION,RA_OF_ASC_NODE,ARG_OF_PERICENTER,MEAN_ANOMALY,BSTAR,MEAN_MOTION_DOT,MEAN_MOTION_DDOT,TLE_LINE0,TLE_LINE1,TLE_LINE2,SEMIMAJOR_AXIS,PERIOD,APOGEE,PERIGEE,DECAYED
51793.0,STARLINK-3633,PAYLOAD,2023-04-12 08:34:33,15.08838479,0.00012,53.2167,78.1116,90.0125,270.1004,-1.9086e-05,-5.92e-06,0.0,0 STARLINK-3633,1 51793U 22017AB  23102.35733742 -.00000592  00000-0 -19086-4 0  9995,2 51793  53.2167  78.1116 0001200  90.0125 270.1004 15.08838479 63595,6917.885,95.438,540.58,538.92,0.0
51793.0,STARLINK-3633,PAYLOAD,2023-04-13 06:49:58,15.08838231,0.0001185,53.217,73.9494,94.028,266.0847,7.1364e-06,-1.74e-06,0.0,0 STARLINK-3633,1 51793U 22017AB  23103.28470059 -.00000174  00000-0  71364-5 0  9990,2 51793  53.2170  73.9494 0001185  94.0280 266.0847 15.08838231 63730,6917.886,95.438,540.571,538.931,0.0
51793.0,STARLINK-3633,PAYLOAD,2023-04-13 14:46:53,15.08839409,0.0001175,53.2174,72.4628,93.1378,266.9749,3.4749e-05,2.65e-06,0.0,0 STARLINK-3633,1 51793U 22017AB  23103.61589959  .00000265  00000-0  34749-4 0  9992,2 51793  53.2174  72.4628 0001175  93.1378 266.9749 15.08839409 63787,6917.882,95.438,540.56,538.934,0.0
51793.0,STARLINK-3633,PAYLOAD,2023-04-14 08:16:07,15.08846056,0.0001082,53.2171,69.1912,89.893,270.2186,0.00013171,1.809e-05,0.0,0 STARLINK-3633,1 51793U 22017AB  23104.34453538  .00001809  00000-0  13171-3 0  9996,2 51793  53.2171  69.1912 0001082  89.8930 270.2186 15.08846056 63897,6917.862,95.437,540.475,538.978,0.0
51793.0,STARLINK-3633,PAYLOAD,2023-04-15 06:31:31,15.08847706,0.0001353,53.2176,65.0275,78.7456,281.3688,0.00010472,1.379e-05,0.0,0 STARLINK-3633,1 51793U 22017AB  23105.27189734  .00001379  00000-0  10472-3 0  9996,2 51793  53.2176  65.0275 0001353  78.7456 281.3688 15.08847706 64030,6917.857,95.437,540.658,538.786,0.0
51793.0,STARLINK-3633,PAYLOAD,2023-04-15 20:50:00,15.08839047,0.0001753,53.2177,62.3535,78.9939,281.1251,2.9394e-05,1.8e-06,0.0,0 STARLINK-3633,1 51793U 22017AB  23105.86806569  .00000180  00000-0  29394-4 0  9996,2 51793  53.2177  62.3535 0001753  78.9939 281.1251 15.08839047 64125,6917.883,95.438,540.961,538.536,0.0
51793.0,STARLINK-3633,PAYLOAD,2023-04-16 06:22:18,15.08849623,0.0001209,53.2182,60.5662,88.808,271.305,4.2888e-05,3.95e-06,0.0,0 STARLINK-3633,1 51793U 22017AB  23106.26549767  .00000395  00000-0  42888-4 0  9996,2 51793  53.2182  60.5662 0001209  88.8080 271.3050 15.08849623 64180,6917.851,95.437,540.552,538.88,0.0
51793.0,STARLINK-3633,PAYLOAD,2023-04-17 06:13:05,15.08857985,0.0001258,53.2181,56.1082,85.8618,274.2518,9.2093e-05,1.179e-05,0.0,0 STARLINK-3633,1 51793U 22017AB  23107.25909103  .00001179  00000-0  92093-4 0  9994,2 51793  53.2181  56.1082 0001258  85.8618 274.2518 15.08857985 64332,6917.825,95.436,540.561,538.82,0.0
51793.0,STARLINK-3633,PAYLOAD,2023-04-18 06:03:52,15.08855786,0.0001152,53.2176,51.6476,79.9692,280.143,6.7992e-05,7.95e-06,0.0,0 STARLINK-3633,1 51793U 22017AB  23108.25269263  .00000795  00000-0  67992-4 0  9994,2 51793  53.2176  51.6476 0001152  79.9692 280.1430 15.08855786 64484,6917.832,95.437,540.494,538.9,0.0
51793.0,STARLINK-3633,PAYLOAD,2023-04-18 20:22:22,15.08837355,0.0001321,53.218,48.9714,92.7337,267.3807,-7.9176e-05,-1.548e-05,0.0,0 STARLINK-3633,1 51793U 22017AB  23108.84887114 -.00001548  00000-0 -79176-4 0  9996,2 51793  53.2180  48.9714 0001321  92.7337 267.3807 15.08837355 64577,6917.888,95.438,540.667,538.84,0.0
51793.0,STARLINK-3633,PAYLOAD,2023-04-19 05:54:40,15.08843352,0.0001169,53.2184,47.1866,88.2869,271.8257,-8.1226e-07,-3.01e-06,0.0,0 STARLINK-3633,1 51793U 22017AB  23109.24630632 -.00000301  00000-0 -81226-6 0  9999,2 51793  53.2184  47.1866 0001169  88.2869 271.8257 15.08843352 64630,6917.87,95.437,540.544,538.926,0.0
51793.0,STARLINK-3633,PAYLOAD,2023-04-20 04:10:03,15.08858355,9.82e-05,53.2175,43.0236,91.5195,268.591,0.00025507,3.776e-05,0.0,0 STARLINK-3633,1 51793U 22017AB  23110.17365653  .00003776  00000-0  25507-3 0  9995,2 51793  53.2175  43.0236 0000982  91.5195 268.5910 15.08858355 64770,6917.824,95.436,540.369,539.01,0.0
51793.0,STARLINK-3633,PAYLOAD,2023-04-21 11:57:48,15.08834179,0.0001214,53.2179,37.0767,85.0933,275.0198,-1.8187e-05,-5.77e-06,0.0,0 STARLINK-3633,1 51793U 22017AB  23111.49847590 -.00000577  00000-0 -18187-4 0  9991,2 51793  53.2179  37.0767 0001214  85.0933 275.0198 15.08834179 64974,6917.898,95.438,540.603,538.923,0.0
51793.0,STARLINK-3633,PAYLOAD,2023-04-21 19:54:43,15.08845704,0.0001111,53.2168,35.5893,84.4673,275.6446,-1.6485e-05,-5.5e-06,0.0,0 STARLINK-3633,1 51793U 22017AB  23111.82967135 -.00000550  00000-0 -16485-4 0  9996,2 51793  53.2168  35.5893 0001111  84.4673 275.6446 15.08845704 65020,6917.863,95.437,540.497,538.959,0.0
51793.0,STARLINK-3633,PAYLOAD,2023-04-22 18:10:07,15.0884751,0.0001616,53.2163,31.4302,89.703,270.4148,0.00016935,2.409e-05,0.0,0 STARLINK-3633,1 51793U 22017AB  23112.75703000  .00002409  00000-0  16935-3 0  9990,2 51793  53.2163  31.4302 0001616  89.7030 270.4148 15.08847510 65164,6917.857,95.437,540.84,538.605,0.0
51793.0,STARLINK-3633,PAYLOAD,2023-04-23 05:17:49,15.08843732,0.0001493,53.2175,29.3453,83.6594,276.4568,0.00017058,2.428e-05,0.0,0 STARLINK-3633,1 51793U 22017AB  23113.22071189  .00002428  00000-0  17058-3 0  9997,2 51793  53.2175  29.3453 0001493  83.6594 276.4568 15.08843732 65233,6917.869,95.437,540.767,538.701,0.0
51793.0,STARLINK-3633,PAYLOAD,2023-04-23 21:11:40,15.08845106,0.0001204,53.2183,26.3744,87.443,272.67,2.7834e-05,1.55e-06,0.0,0 STARLINK-3633,1 51793U 22017AB  23113.88311058  .00000155  00000-0  27834-4 0  9990,2 51793  53.2183  26.3744 0001204  87.4430 272.6700 15.08845106 65337,6917.865,95.437,540.563,538.897,0.0
51793.0,STARLINK-3633,PAYLOAD,2023-04-24 03:33:12,15.088658,0.0001992,53.2156,25.185,77.9118,282.2097,0.00034239,5.169e-05,0.0,0 STARLINK-3633,1 51793U 22017AB  23114.14806195  .00005169  00000-0  34239-3 0  9997,2 51793  53.2156  25.1850 0001992  77.9118 282.2097 15.08865800 65376,6917.802,95.436,541.045,538.289,0.0
51793.0,STARLINK-3633,PAYLOAD,2023-04-25 00:13:11,15.08871756,0.0001322,53.2175,21.3154,89.4509,270.6635,0.00040907,6.234e-05,0.0,0 STARLINK-3633,1 51793U 22017AB  23115.00916525  .00006234  00000-0  40907-3 0  9995,2 51793  53.2175  21.3154 0001322  89.4509 270.6635 15.08871756 65502,6917.783,95.436,540.563,538.734,0.0
51793.0,STARLINK-3633,PAYLOAD,2023-04-25 22:28:37,15.08828751,0.0001019,53.217,17.1497,95.3844,264.7264,-0.00040416,-6.712e-05,0.0,0 STARLINK-3633,1 51793U 22017AB  23115.93654145 -.00006712  00000-0 -40416-3 0  9992,2 51793  53.2170  17.1497 0001019  95.3844 264.7264 15.08828751 65645,6917.915,95.438,540.485,539.075,0.0
51793.0,STARLINK-3633,PAYLOAD,2023-04-26 04:50:10,15.08815422,0.0001451,53.2164,15.9609,127.6932,232.4191,-0.00051347,-8.445e-05,0.0,0 STARLINK-3633,1 51793U 22017AB  23116.20151180 -.00008445  00000-0 -51347-3 0  9994,2 51793  53.2164  15.9609 0001451 127.6932 232.4191 15.08815422 65682,6917.956,95.439,540.824,538.817,0.0
51793.0,STARLINK-3633,PAYLOAD,2023-04-26 17:33:16,15.08819979,0.0001178,53.2174,13.5879,123.2899,236.8206,-0.0002596,-4.415e-05,0.0,0 STARLINK-3633,1 51793U 22017AB  23116.73143686 -.00004415  00000-0 -25960-3 0  9999,2 51793  53.2174  13.5879 0001178 123.2899 236.8206 15.08819979 65761,6917.942,95.439,540.622,538.992,0.0
51793.0,STARLINK-3633,PAYLOAD,2023-04-27 03:05:34,15.08826581,0.0001615,53.2187,11.8024,96.0435,264.0741,-0.0001882,-3.281e-05,0.0,0 STARLINK-3633,1 51793U 22017AB  23117.12887655 -.00003281  00000-0 -18820-3 0  9991,2 51793  53.2187  11.8024 0001615  96.0435 264.0741 15.08826581 65828,6917.921,95.438,540.904,538.669,0.0
51793.0,STARLINK-3633,PAYLOAD,2023-04-27 23:45:36,15.08853098,9.6e-05,53.2173,7.9384,123.4124,236.696,0.00084662,0.00013216,0.0,0 STARLINK-3633,1 51793U 22017AB  23117.99000115  .00013216  00000-0  84662-3 0  9998,2 51793  53.2173   7.9384 0000960 123.4124 236.6960 15.08853098 65955,6917.84,95.437,540.369,539.041,0.0
51793.0,STARLINK-3633,PAYLOAD,2023-04-28 02:56:21,15.08866999,0.0001102,53.2177,7.3416,108.5549,251.5563,0.001001,0.00015691,0.0,0 STARLINK-3633,1 51793U 22017AB  23118.12247544  .00015691  00000-0  10010-2 0  9997,2 51793  53.2177   7.3416 0001102 108.5549 251.5563 15.08866999 65974,6917.798,95.436,540.425,538.901,0.0
51793.0,STARLINK-3633,PAYLOAD,2023-04-28 09:17:54,15.0885886,0.0001632,53.2181,6.1521,94.8536,265.2642,0.00051732,7.959e-05,0.0,0 STARLINK-3633,1 51793U 22017AB  23118.38743833  .00007959  00000-0  51732-3 0  9992,2 51793  53.2181   6.1521 0001632  94.8536 265.2642 15.08858860 66018,6917.823,95.436,540.817,538.559,0.0
51793.0,STARLINK-3633,PAYLOAD,2023-04-28 17:14:50,15.08852791,0.0001747,53.2193,4.6712,116.3682,243.7489,-0.00015259,-2.717e-05,0.0,0 STARLINK-3633,1 51793U 22017AB  23118.71863519 -.00002717  00000-0 -15259-3 0  9996,2 51793  53.2193   4.6712 0001747 116.3682 243.7489 15.08852791 66067,6917.841,95.437,540.915,538.498,0.0
51793.0,STARLINK-3633,PAYLOAD,2023-04-28 23:36:22,15.08842768,0.0001306,53.2186,3.4817,110.6505,249.4627,-0.00016928,-2.981e-05,0.0,0 STARLINK-3633,1 51793U 22017AB  23118.98359752 -.00002981  00000-0 -16928-3 0  9991,2 51793  53.2186   3.4817 0001306 110.6505 249.4627 15.08842768 66109,6917.872,95.437,540.64,538.833,0.0
51793.0,STARLINK-3633,PAYLOAD,2023-04-29 23:27:09,15.08850558,0.0001147,53.218,359.0171,100.8714,259.2407,0.00055207,8.512e-05,0.0,0 STARLINK-3633,1 51793U 22017AB  23119.97719696  .00008512  00000-0  55207-3 0  9995,2 51793  53.2180 359.0171 0001147 100.8714 259.2407 15.08850558 66259,6917.848,95.437,540.507,538.92,0.0
51793.0,STARLINK-3633,PAYLOAD,2023-04-30 15:21:01,15.08840345,0.0001239,53.2179,356.0451,84.0335,276.0798,0.00023381,3.435e-05,0.0,0 STARLINK-3633,1 51793U 22017AB  23120.63960122  .00003435  00000-0  23381-3 0  9999,2 51793  53.2179 356.0451 0001239  84.0335 276.0798 15.08840345 66353,6917.879,95.438,540.601,538.887,0.0
